INNOSAT 3 (RS92S0)      
1 64894U 25155U   26177.25560193  .00041678  00000+0  89806-3 0  9992
2 64894  97.4481 148.9717 0007705 130.5414 229.6507 15.44450841 82366
KNACKSAT-2              
1 67683U 98067XZ  26176.42038817  .00054321  00000+0  64307-3 0  9992
2 67683  51.6277 253.0425 0008709 252.4154 107.5888 15.60671397 21564
